0 COSMOS 2251 DEB
1 33935U 93036EQ  13281.80589926  .00004392  00000-0  11305-2 0  9873
2 33935 074.0146 082.8145 0051493 240.2623 230.5886 14.49624860245575
0 COSMOS 2251 DEB
1 33935U 93036EQ  13283.44683275  .00006191  00000-0  15894-2 0  9884
2 33935 074.0146 079.7314 0051451 236.8342 154.0583 14.49646883245811
0 COSMOS 2251 DEB
1 33935U 93036EQ  13285.52319595  .00005060  00000-0  13002-2 0  9890
2 33935 074.0141 075.8287 0051411 232.5436 189.9837 14.49664557246116
0 COSMOS 2251 DEB
1 33935U 93036EQ  13287.52549652  .00005847  00000-0  15006-2 0  9902
2 33935 074.0143 072.0651 0051379 228.4626 199.4805 14.49683465246402
0 COSMOS 2251 DEB
1 33935U 93036EQ  13289.80790258  .00008425  00000-0  21567-2 0  9910
2 33935 074.0149 067.7750 0051324 223.8880 230.9120 14.49712671246739
0 COSMOS 2251 DEB
1 33935U 93036EQ  13291.81359324  .00007441  00000-0  19052-2 0  9923
2 33935 074.0160 064.0057 0051201 219.7251 258.5597 14.49738617247027
0 COSMOS 2251 DEB
1 33935U 93036EQ  13293.82160267  .00008021  00000-0  20519-2 0  9938
2 33935 074.0163 060.2316 0051089 215.6847 298.3691 14.49763109247319
